{
    "links": {
        "self": "http://www.neowsapp.com/rest/v1/neo/3794961?api_key=iIulBulltgU6a56xZRHN4H3l9WmuAYTsLGpBGhQ2"
    },
    "id": "3794961",
    "neo_reference_id": "3794961",
    "name": "(2017 YA1)",
    "designation": "2017 YA1",
    "nasa_jpl_url": "http://ssd.jpl.nasa.gov/sbdb.cgi?sstr=3794961",
    "absolute_magnitude_h": 25.3,
    "estimated_diameter": {
        "kilometers": {
            "estimated_diameter_min": 0.0231502122,
            "estimated_diameter_max": 0.0517654482
        },
        "meters": {
            "estimated_diameter_min": 23.150212221,
            "estimated_diameter_max": 51.7654482198
        },
        "miles": {
            "estimated_diameter_min": 0.0143848705,
            "estimated_diameter_max": 0.0321655483
        },
        "feet": {
            "estimated_diameter_min": 75.9521422633,
            "estimated_diameter_max": 169.8341531374
        }
    },
    "is_potentially_hazardous_asteroid": false,
    "close_approach_data": [
        {
            "close_approach_date": "2017-12-09",
            "close_approach_date_full": "2017-Dec-09 23:01",
            "epoch_date_close_approach": 1512860460000,
            "relative_velocity": {
                "kilometers_per_second": "13.3355812523",
                "kilometers_per_hour": "48008.0925081371",
                "miles_per_hour": "29830.3617031811"
            },
            "miss_distance": {
                "astronomical": "0.0637040907",
                "lunar": "24.7808912823",
                "kilometers": "9529996.279006809",
                "miles": "5921665.0965156042"
            },
            "orbiting_body": "Earth"
        }
    ],
    "orbital_data": {
        "orbit_id": "1",
        "orbit_determination_date": "2017-12-23 12:42:06",
        "first_observation_date": "2017-12-20",
        "last_observation_date": "2017-12-23",
        "data_arc_in_days": 3,
        "observations_used": 11,
        "orbit_uncertainty": "9",
        "minimum_orbit_intersection": ".0188845",
        "jupiter_tisserand_invariant": "4.221",
        "epoch_osculation": "2458108.5",
        "eccentricity": ".4771556259219907",
        "semi_major_axis": "1.603236735216929",
        "inclination": "1.406933463410614",
        "ascending_node_longitude": "181.693569482011",
        "orbital_period": "741.4722635666139",
        "perihelion_distance": ".8382433073233665",
        "perihelion_argument": "193.3554659406258",
        "aphelion_distance": "2.368230163110492",
        "perihelion_time": "2458054.504402539771",
        "mean_anomaly": "26.21597063143022",
        "mean_motion": ".4855205213858382",
        "equinox": "J2000",
        "orbit_class": {
            "orbit_class_type": "APO",
            "orbit_class_description": "Near-Earth asteroid orbits which cross the Earth’s orbit similar to that of 1862 Apollo",
            "orbit_class_range": "a (semi-major axis) > 1.0 AU; q (perihelion) < 1.017 AU"
        }
    },
    "is_sentry_object": false
}